{"type": "FeatureCollection", "features": [ {"type": "Feature", "properties": {"norad_id": 30368, "name": "FENGYUN 1C DEB", "group": "fengyun-1c-debris", "lat": -80.80497519524333, "lon": 176.55724406281706, "alt_km": 911.459003846192, "timestamp": "2025-12-05T14:45:15.574939+00:00", "meta": {"OBJECT_NAME": "FENGYUN 1C DEB", "OBJECT_ID": "1999-025ACF", "EPOCH": "2025-12-04T06:16:02.133120", "MEAN_MOTION": 13.75353514, "ECCENTRICITY": 0.0186116, "INCLINATION": 99.1887, "RA_OF_ASC_NODE": 84.4866, "ARG_OF_PERICENTER": 330.5033, "MEAN_ANOMALY": 82.5348, "EPHEMERIS_TYPE": 0, "CLASSIFICATION_TYPE": "U", "NORAD_CAT_ID": 30368, "ELEMENT_SET_NO": 999, "REV_AT_EPOCH": 94545, "BSTAR": 0.00062405, "MEAN_MOTION_DOT": 6.36e-06, "MEAN_MOTION_DDOT": 0}, "tle": {"line1": "1 30368U 99025ACF 25338.26113580  .00000636  00000+0  62405-3 0  9996", "line2": "2 30368  99.1887  84.4866 0186116 330.5033  82.5348 13.75353514945454"}}, "geometry": {"type": "Point", "coordinates": [176.55724406281706, -80.80497519524333]}}, {"type": "Feature", "properties": {"norad_id": 30369, "name": "FENGYUN 1C DEB", "group": "fengyun-1c-debris", "lat": -68.88006338924137, "lon": 0.5774559812030079, "alt_km": 838.6439087450999, "timestamp": "2025-12-05T14:45:15.574949+00:00", "meta": {"OBJECT_NAME": "FENGYUN 1C DEB", "OBJECT_ID": "1999-025ACG", "EPOCH": "2025-12-04T06:51:28.711008", "MEAN_MOTION": 14.12047577, "ECCENTRICITY": 0.0098825, "INCLINATION": 98.7209, "RA_OF_ASC_NODE": 335.8708, "ARG_OF_PERICENTER": 219.6404, "MEAN_ANOMALY": 156.5254, "EPHEMERIS_TYPE": 0, "CLASSIFICATION_TYPE": "U", "NORAD_CAT_ID": 30369, "ELEMENT_SET_NO": 999, "REV_AT_EPOCH": 97127, "BSTAR": 0.00037638, "MEAN_MOTION_DOT": 6.79e-06, "MEAN_MOTION_DDOT": 0}, "tle": {"line1": "1 30369U 99025ACG 25338.28574897  .00000679  00000+0  37638-3 0  9998", "line2": "2 30369  98.7209 335.8708 0098825 219.6404 156.5254 14.12047577971272"}}, "geometry": {"type": "Point", "coordinates": [0.5774559812030079, -68.88006338924137]}}, {"type": "Feature", "properties": {"norad_id": 30370, "name": "FENGYUN 1C DEB", "group": "fengyun-1c-debris", "lat": 32.05680031627786, "lon": 29.67443015735392, "alt_km": 784.6554060888584, "timestamp": "2025-12-05T14:45:15.574959+00:00", "meta": {"OBJECT_NAME": "FENGYUN 1C DEB", "OBJECT_ID": "1999-025ACH", "EPOCH": "2025-12-04T15:37:22.791072", "MEAN_MOTION": 14.19089281, "ECCENTRICITY": 0.0099226, "INCLINATION": 99.0577, "RA_OF_ASC_NODE": 34.423, "ARG_OF_PERICENTER": 340.6706, "MEAN_ANOMALY": 169.9253, "EPHEMERIS_TYPE": 0, "CLASSIFICATION_TYPE": "U", "NORAD_CAT_ID": 30370, "ELEMENT_SET_NO": 999, "REV_AT_EPOCH": 96979, "BSTAR": 0.0022634, "MEAN_MOTION_DOT": 4.925e-05, "MEAN_MOTION_DDOT": 0}, "tle": {"line1": "1 30370U 99025ACH 25338.65095823  .00004925  00000+0  22634-2 0  9995", "line2": "2 30370  99.0577  34.4230 0099226 340.6706 169.9253 14.19089281969790"}}, "geometry": {"type": "Point", "coordinates": [29.67443015735392, 32.05680031627786]}}, {"type": "Feature", "properties": {"norad_id": 30371, "name": "FENGYUN 1C DEB", "group": "fengyun-1c-debris", "lat": 53.5049902092618, "lon": -145.50834535445554, "alt_km": 789.0723140053733, "timestamp": "2025-12-05T14:45:15.574969+00:00", "meta": {"OBJECT_NAME": "FENGYUN 1C DEB", "OBJECT_ID": "1999-025ACJ", "EPOCH": "2025-12-04T15:13:26.448960", "MEAN_MOTION": 14.301663, "ECCENTRICITY": 0.0007188, "INCLINATION": 98.5769, "RA_OF_ASC_NODE": 21.7549, "ARG_OF_PERICENTER": 2.8101, "MEAN_ANOMALY": 117.6912, "EPHEMERIS_TYPE": 0, "CLASSIFICATION_TYPE": "U", "NORAD_CAT_ID": 30371, "ELEMENT_SET_NO": 999, "REV_AT_EPOCH": 97787, "BSTAR": 0.0023298, "MEAN_MOTION_DOT": 5.992e-05, "MEAN_MOTION_DDOT": 0}, "tle": {"line1": "1 30371U 99025ACJ 25338.63433390  .00005992  00000+0  23298-2 0  9991", "line2": "2 30371  98.5769  21.7549 0007188   2.8101 117.6912 14.30166300977873"}}, "geometry": {"type": "Point", "coordinates": [-145.50834535445554, 53.5049902092618]}}, {"type": "Feature", "properties": {"norad_id": 30374, "name": "FENGYUN 1C DEB", "group": "fengyun-1c-debris", "lat": 42.5174880694879, "lon": 30.911287284901327, "alt_km": 669.5734451756871, "timestamp": "2025-12-05T14:45:15.574980+00:00", "meta": {"OBJECT_NAME": "FENGYUN 1C DEB", "OBJECT_ID": "1999-025ACM", "EPOCH": "2025-12-04T07:10:55.283808", "MEAN_MOTION": 14.61064656, "ECCENTRICITY": 0.0039261, "INCLINATION": 99.273, "RA_OF_ASC_NODE": 200.8235, "ARG_OF_PERICENTER": 194.4303, "MEAN_ANOMALY": 227.1125, "EPHEMERIS_TYPE": 0, "CLASSIFICATION_TYPE": "U", "NORAD_CAT_ID": 30374, "ELEMENT_SET_NO": 999, "REV_AT_EPOCH": 98799, "BSTAR": 0.0040245, "MEAN_MOTION_DOT": 0.00019982, "MEAN_MOTION_DDOT": 0}, "tle": {"line1": "1 30374U 99025ACM 25338.29925097  .00019982  00000+0  40245-2 0  9991", "line2": "2 30374  99.2730 200.8235 0039261 194.4303 227.1125 14.61064656987995"}}, "geometry": {"type": "Point", "coordinates": [30.911287284901327, 42.5174880694879]}}, {"type": "Feature", "properties": {"norad_id": 30377, "name": "FENGYUN 1C DEB", "group": "fengyun-1c-debris", "lat": 79.65331383816654, "lon": -59.74957565182305, "alt_km": 968.9696893705468, "timestamp": "2025-12-05T14:45:15.574990+00:00", "meta": {"OBJECT_NAME": "FENGYUN 1C DEB", "OBJECT_ID": "1999-025ACQ", "EPOCH": "2025-12-03T20:18:15.708960", "MEAN_MOTION": 13.99157989, "ECCENTRICITY": 0.01182188, "INCLINATION": 98.8947, "RA_OF_ASC_NODE": 357.5961, "ARG_OF_PERICENTER": 291.4939, "MEAN_ANOMALY": 248.4653, "EPHEMERIS_TYPE": 0, "CLASSIFICATION_TYPE": "U", "NORAD_CAT_ID": 30377, "ELEMENT_SET_NO": 999, "REV_AT_EPOCH": 96082, "BSTAR": 0.00052282338, "MEAN_MOTION_DOT": 7.6e-06, "MEAN_MOTION_DDOT": 0}, "tle": {"line1": "1 30377U 99025ACQ 25337.84601515  .00000760  00000+0  52282-3 0  9999", "line2": "2 30377  98.8947 357.5961 0118218 291.4939 248.4653 13.99157989960829"}}, "geometry": {"type": "Point", "coordinates": [-59.74957565182305, 79.65331383816654]}}, {"type": "Feature", "properties": {"norad_id": 30379, "name": "FENGYUN 1C DEB", "group": "fengyun-1c-debris", "lat": -24.409758529797827, "lon": -1.419876062949433, "alt_km": 850.5562203463332, "timestamp": "2025-12-05T14:45:15.575000+00:00", "meta": {"OBJECT_NAME": "FENGYUN 1C DEB", "OBJECT_ID": "1999-025ACS", "EPOCH": "2025-12-04T12:18:54.628128", "MEAN_MOTION": 14.08021602, "ECCENTRICITY": 0.0035629, "INCLINATION": 98.7586, "RA_OF_ASC_NODE": 353.4994, "ARG_OF_PERICENTER": 303.033, "MEAN_ANOMALY": 211.192, "EPHEMERIS_TYPE": 0, "CLASSIFICATION_TYPE": "U", "NORAD_CAT_ID": 30379, "ELEMENT_SET_NO": 999, "REV_AT_EPOCH": 96701, "BSTAR": 0.00058396, "MEAN_MOTION_DOT": 9.56e-06, "MEAN_MOTION_DDOT": 0}, "tle": {"line1": "1 30379U 99025ACS 25338.51313227  .00000956  00000+0  58396-3 0  9995", "line2": "2 30379  98.7586 353.4994 0035629 303.0330 211.1920 14.08021602967014"}}, "geometry": {"type": "Point", "coordinates": [-1.419876062949433, -24.409758529797827]}}, {"type": "Feature", "properties": {"norad_id": 30380, "name": "FENGYUN 1C DEB", "group": "fengyun-1c-debris", "lat": 2.3514679730418275, "lon": 26.445660697985527, "alt_km": 794.2156175074078, "timestamp": "2025-12-05T14:45:15.575010+00:00", "meta": {"OBJECT_NAME": "FENGYUN 1C DEB", "OBJECT_ID": "1999-025ACT", "EPOCH": "2025-12-04T15:34:02.426880", "MEAN_MOTION": 14.50634154, "ECCENTRICITY": 0.0177215, "INCLINATION": 98.9158, "RA_OF_ASC_NODE": 25.7917, "ARG_OF_PERICENTER": 241.8471, "MEAN_ANOMALY": 116.4719, "EPHEMERIS_TYPE": 0, "CLASSIFICATION_TYPE": "U", "NORAD_CAT_ID": 30380, "ELEMENT_SET_NO": 999, "REV_AT_EPOCH": 99448, "BSTAR": 0.00052859, "MEAN_MOTION_DOT": 2.48e-05, "MEAN_MOTION_DDOT": 0}, "tle": {"line1": "1 30380U 99025ACT 25338.64863920  .00002480  00000+0  52859-3 0  9993", "line2": "2 30380  98.9158  25.7917 0177215 241.8471 116.4719 14.50634154994483"}}, "geometry": {"type": "Point", "coordinates": [26.445660697985527, 2.3514679730418275]}}, {"type": "Feature", "properties": {"norad_id": 30381, "name": "FENGYUN 1C DEB", "group": "fengyun-1c-debris", "lat": -33.50560719496157, "lon": -171.1769263648575, "alt_km": 873.9432645942925, "timestamp": "2025-12-05T14:45:15.575020+00:00", "meta": {"OBJECT_NAME": "FENGYUN 1C DEB", "OBJECT_ID": "1999-025ACU", "EPOCH": "2025-12-02T00:46:16.130496", "MEAN_MOTION": 14.12883963, "ECCENTRICITY": 0.00550495, "INCLINATION": 98.8157, "RA_OF_ASC_NODE": 11.1932, "ARG_OF_PERICENTER": 106.2398, "MEAN_ANOMALY": 254.484, "EPHEMERIS_TYPE": 0, "CLASSIFICATION_TYPE": "U", "NORAD_CAT_ID": 30381, "ELEMENT_SET_NO": 999, "REV_AT_EPOCH": 92015, "BSTAR": 0.0012049152, "MEAN_MOTION_DOT": 2.232e-05, "MEAN_MOTION_DDOT": 0}, "tle": {"line1": "1 30381U 99025ACU 25336.03213114  .00002232  00000+0  12049-2 0  9990", "line2": "2 30381  98.8157  11.1932 0055049 106.2398 254.4840 14.12883963920153"}}, "geometry": {"type": "Point", "coordinates": [-171.1769263648575, -33.50560719496157]}}, {"type": "Feature", "properties": {"norad_id": 30382, "name": "FENGYUN 1C DEB", "group": "fengyun-1c-debris", "lat": -60.17252879460672, "lon": -176.91056026974817, "alt_km": 895.173468114851, "timestamp": "2025-12-05T14:45:15.575031+00:00", "meta": {"OBJECT_NAME": "FENGYUN 1C DEB", "OBJECT_ID": "1999-025ACV", "EPOCH": "2025-12-04T16:15:42.935328", "MEAN_MOTION": 14.25236697, "ECCENTRICITY": 0.015519, "INCLINATION": 98.4995, "RA_OF_ASC_NODE": 17.2997, "ARG_OF_PERICENTER": 20.7115, "MEAN_ANOMALY": 95.9363, "EPHEMERIS_TYPE": 0, "CLASSIFICATION_TYPE": "U", "NORAD_CAT_ID": 30382, "ELEMENT_SET_NO": 999, "REV_AT_EPOCH": 97420, "BSTAR": 0.0017851, "MEAN_MOTION_DOT": 4.719e-05, "MEAN_MOTION_DDOT": 0}, "tle": {"line1": "1 30382U 99025ACV 25338.67758027  .00004719  00000+0  17851-2 0  9998", "line2": "2 30382  98.4995  17.2997 0155190  20.7115  95.9363 14.25236697974206"}}, "geometry": {"type": "Point", "coordinates": [-176.91056026974817, -60.17252879460672]}}]}